start=new Date('2022-03-03T00:00:00.000Z').valueOf();
sats=[{"OBJECT_ID":"2019-074AE","APOAPSIS":"548.477","LAUNCH_DATE":"2019-11-11","REF_FRAME":"TEME","OBJECT_NAME":"STARLINK-1036","TLE_LINE2":"2 44741  53.0544 315.6824 0001826  65.0132 295.1047 15.06400286127242","EPOCH":"2022-03-02T22:06:59.944896","INCLINATION":"53.0544","CENTER_NAME":"EARTH","COUNTRY_CODE":"US","DECAY_DATE":null,"MEAN_ANOMALY":"295.1047","RCS_SIZE":"LARGE","SEMIMAJOR_AXIS":"6925.348","MEAN_MOTION":"15.06400286","BSTAR":"0.00002543100000","MEAN_MOTION_DOT":"0.00000097","REV_AT_EPOCH":"12724","ARG_OF_PERICENTER":"65.0132","TIME_SYSTEM":"UTC","SITE":"AFETR","ELEMENT_SET_NO":"999","RA_OF_ASC_NODE":"315.6824","MEAN_ELEMENT_THEORY":"SGP4","GP_ID":"197657804","CLASSIFICATION_TYPE":"U","ECCENTRICITY":"0.00018260","TLE_LINE1":"1 44741U 19074AE  22061.92152714  .00000097  00000-0  25431-4 0  9998","PERIAPSIS":"545.948","OBJECT_TYPE":"PAYLOAD","EPHEMERIS_TYPE":"0","FILE":"3341695","PERIOD":"95.592","NORAD_CAT_ID":"44741","MEAN_MOTION_DDOT":"0.0000000000000"},{"FILE":"3341350","EPHEMERIS_TYPE":"0","MEAN_MOTION_DDOT":"0.0000000000000","PERIOD":"95.285","NORAD_CAT_ID":"44742","ECCENTRICITY":"0.00027010","TLE_LINE1":"1 44742U 19074AF  22060.97540660  .00010868  00000-0  65527-3 0  9990","PERIAPSIS":"530.520","OBJECT_TYPE":"PAYLOAD","MEAN_ELEMENT_THEORY":"SGP4","ELEMENT_SET_NO":"999","RA_OF_ASC_NODE":"310.0659","CLASSIFICATION_TYPE":"U","GP_ID":"197624050","TIME_SYSTEM":"UTC","ARG_OF_PERICENTER":"122.1516","SITE":"AFETR","BSTAR":"0.00065527000000","SEMIMAJOR_AXIS":"6910.522","MEAN_MOTION":"15.11250627","RCS_SIZE":"LARGE","MEAN_ANOMALY":"237.9737","REV_AT_EPOCH":"12720","MEAN_MOTION_DOT":"0.00010868","CENTER_NAME":"EARTH","INCLINATION":"52.9978","EPOCH":"2022-03-01T23:24:35.130240","DECAY_DATE":null,"COUNTRY_CODE":"US","OBJECT_NAME":"STARLINK-1037","REF_FRAME":"TEME","LAUNCH_DATE":"2019-11-11","APOAPSIS":"534.253","TLE_LINE2":"2 44742  52.9978 310.0659 0002701 122.1516 237.9737 15.11250627127205","OBJECT_ID":"2019-074AF"},{"MEAN_ELEMENT_THEORY":"SGP4","ELEMENT_SET_NO":"999","RA_OF_ASC_NODE":"335.7558","CLASSIFICATION_TYPE":"U","GP_ID":"197656802","TIME_SYSTEM":"UTC","ARG_OF_PERICENTER":"49.6917","SITE":"AFETR","FILE":"3341695","EPHEMERIS_TYPE":"0","MEAN_MOTION_DDOT":"0.0000000000000","PERIOD":"95.592","NORAD_CAT_ID":"44743","PERIAPSIS":"545.740","TLE_LINE1":"1 44743U 19074AG  22061.90494788 -.00000978  00000-0 -46764-4 0  9990","ECCENTRICITY":"0.00021380","OBJECT_TYPE":"PAYLOAD","OBJECT_NAME":"STARLINK-1038","REF_FRAME":"TEME","LAUNCH_DATE":"2019-11-11","APOAPSIS":"548.701","TLE_LINE2":"2 44743  53.0563 335.7558 0002138  49.6917 310.4259 15.06397755127059","OBJECT_ID":"2019-074AG","BSTAR":"-0.00004676400000","SEMIMAJOR_AXIS":"6925.355","MEAN_MOTION":"15.06397755","RCS_SIZE":"LARGE","MEAN_ANOMALY":"310.4259","REV_AT_EPOCH":"12705","MEAN_MOTION_DOT":"-0.00000978","CENTER_NAME":"EARTH","INCLINATION":"53.0563","EPOCH":"2022-03-02T21:43:07.496832","DECAY_DATE":null,"COUNTRY_CODE":"US"},{"OBJECT_ID":"2019-074AH","TLE_LINE2":"2 44744  53.0561 335.7091 0001877  61.5638 298.5540 15.06397058126966","APOAPSIS":"548.522","OBJECT_NAME":"STARLINK-1039","REF_FRAME":"TEME","LAUNCH_DATE":"2019-11-11","COUNTRY_CODE":"US","DECAY_DATE":null,"INCLINATION":"53.0561","EPOCH":"2022-03-02T21:59:02.628096","CENTER_NAME":"EARTH","REV_AT_EPOCH":"12696","MEAN_MOTION_DOT":"-0.00000369","RCS_SIZE":"LARGE","MEAN_ANOMALY":"298.5540","BSTAR":"-0.00000583630000","SEMIMAJOR_AXIS":"6925.358","MEAN_MOTION":"15.06397058","SITE":"AFETR","ARG_OF_PERICENTER":"61.5638","TIME_SYSTEM":"UTC","GP_ID":"197656553","CLASSIFICATION_TYPE":"U","ELEMENT_SET_NO":"999","RA_OF_ASC_NODE":"335.7091","MEAN_ELEMENT_THEORY":"SGP4","OBJECT_TYPE":"PAYLOAD","TLE_LINE1":"1 44744U 19074AH  22061.91600264 -.00000369  00000-0 -58363-5 0  9993","PERIAPSIS":"545.923","ECCENTRICITY":"0.00018770","MEAN_MOTION_DDOT":"0.0000000000000","PERIOD":"95.592","NORAD_CAT_ID":"44744","EPHEMERIS_TYPE":"0","FILE":"3341695"},{"TIME_SYSTEM":"UTC","ARG_OF_PERICENTER":"54.2761","SITE":"AFETR","MEAN_ELEMENT_THEORY":"SGP4","RA_OF_ASC_NODE":"335.7769","ELEMENT_SET_NO":"999","CLASSIFICATION_TYPE":"U","GP_ID":"197657305","TLE_LINE1":"1 44746U 19074AK  22061.90124446  .00000902  00000-0  79417-4 0  9990","ECCENTRICITY":"0.00019720","PERIAPSIS":"545.824","OBJECT_TYPE":"PAYLOAD","FILE":"3341695","EPHEMERIS_TYPE":"0","MEAN_MOTION_DDOT":"0.0000000000000","PERIOD":"95.592","NORAD_CAT_ID":"44746","OBJECT_ID":"2019-074AK","OBJECT_NAME":"STARLINK-1041","LAUNCH_DATE":"2019-11-11","REF_FRAME":"TEME","APOAPSIS":"548.555","TLE_LINE2":"2 44746  53.0573 335.7769 0001972  54.2761 305.8411 15.06407804126965","CENTER_NAME":"EARTH","INCLINATION":"53.0573","EPOCH":"2022-03-02T21:37:47.521344","COUNTRY_CODE":"US","DECAY_DATE":null,"BSTAR":"0.00007941700000","MEAN_MOTION":"15.06407804","SEMIMAJOR_AXIS":"6925.325","RCS_SIZE":"LARGE","MEAN_ANOMALY":"305.8411","REV_AT_EPOCH":"12696","MEAN_MOTION_DOT":"0.00000902"},{"OBJECT_ID":"2019-074AL","APOAPSIS":"548.409","REF_FRAME":"TEME","LAUNCH_DATE":"2019-11-11","OBJECT_NAME":"STARLINK-1042","TLE_LINE2":"2 44747  53.0568 335.9410 0001653  64.5294 295.5866 15.06383304126963","EPOCH":"2022-03-02T20:44:44.679264","INCLINATION":"53.0568","CENTER_NAME":"EARTH","DECAY_DATE":null,"COUNTRY_CODE":"US","MEAN_ANOMALY":"295.5866","RCS_SIZE":"LARGE","MEAN_MOTION":"15.06383304","SEMIMAJOR_AXIS":"6925.400","BSTAR":"0.00001038400000","MEAN_MOTION_DOT":"-0.00000127","REV_AT_EPOCH":"12696","ARG_OF_PERICENTER":"64.5294","TIME_SYSTEM":"UTC","SITE":"AFETR","ELEMENT_SET_NO":"999","RA_OF_ASC_NODE":"335.9410","MEAN_ELEMENT_THEORY":"SGP4","GP_ID":"197657556","CLASSIFICATION_TYPE":"U","PERIAPSIS":"546.120","TLE_LINE1":"1 44747U 19074AL  22061.86440601 -.00000127  00000-0  10384-4 0  9998","ECCENTRICITY":"0.00016530","OBJECT_TYPE":"PAYLOAD","EPHEMERIS_TYPE":"0","FILE":"3341695","NORAD_CAT_ID":"44747","PERIOD":"95.593","MEAN_MOTION_DDOT":"0.0000000000000"},{"OBJECT_ID":"2019-074AM","APOAPSIS":"548.226","LAUNCH_DATE":"2019-11-11","REF_FRAME":"TEME","OBJECT_NAME":"STARLINK-1043","TLE_LINE2":"2 44748  53.0557 335.8046 0001455  61.9832 298.1304 15.06398339126965","EPOCH":"2022-03-02T21:27:11.767680","INCLINATION":"53.0557","CENTER_NAME":"EARTH","DECAY_DATE":null,"COUNTRY_CODE":"US","MEAN_ANOMALY":"298.1304","RCS_SIZE":"LARGE","SEMIMAJOR_AXIS":"6925.354","MEAN_MOTION":"15.06398339","BSTAR":"0.00000475590000","MEAN_MOTION_DOT":"-0.00000211","REV_AT_EPOCH":"12696","ARG_OF_PERICENTER":"61.9832","TIME_SYSTEM":"UTC","SITE":"AFETR","ELEMENT_SET_NO":"999","RA_OF_ASC_NODE":"335.8046","MEAN_ELEMENT_THEORY":"SGP4","GP_ID":"197656303","CLASSIFICATION_TYPE":"U","TLE_LINE1":"1 44748U 19074AM  22061.89388620 -.00000211  00000-0  47559-5 0  9993","ECCENTRICITY":"0.00014550","PERIAPSIS":"546.211","OBJECT_TYPE":"PAYLOAD","EPHEMERIS_TYPE":"0","FILE":"3341695","NORAD_CAT_ID":"44748","PERIOD":"95.592","MEAN_MOTION_DDOT":"0.0000000000000"},{"SITE":"AFETR","ARG_OF_PERICENTER":"58.1370","TIME_SYSTEM":"UTC","GP_ID":"197657053","CLASSIFICATION_TYPE":"U","ELEMENT_SET_NO":"999","RA_OF_ASC_NODE":"335.7507","MEAN_ELEMENT_THEORY":"SGP4","OBJECT_TYPE":"PAYLOAD","TLE_LINE1":"1 44751U 19074AQ  22061.90861444  .00001232  00000-0  10155-3 0  9992","PERIAPSIS":"545.865","ECCENTRICITY":"0.00018980","NORAD_CAT_ID":"44751","PERIOD":"95.591","MEAN_MOTION_DDOT":"0.0000000000000","EPHEMERIS_TYPE":"0","FILE":"3341695","OBJECT_ID":"2019-074AQ","TLE_LINE2":"2 44751  53.0556 335.7507 0001898  58.1370 301.9804 15.06411074126965","APOAPSIS":"548.494","REF_FRAME":"TEME","LAUNCH_DATE":"2019-11-11","OBJECT_NAME":"STARLINK-1046","COUNTRY_CODE":"US","DECAY_DATE":null,"EPOCH":"2022-03-02T21:48:24.287616","INCLINATION":"53.0556","CENTER_NAME":"EARTH","MEAN_MOTION_DOT":"0.00001232","REV_AT_EPOCH":"12696","MEAN_ANOMALY":"301.9804","RCS_SIZE":"LARGE","SEMIMAJOR_AXIS":"6925.315","MEAN_MOTION":"15.06411074","BSTAR":"0.00010155000000"},{"FILE":"3341695","EPHEMERIS_TYPE":"0","MEAN_MOTION_DDOT":"0.0000000000000","PERIOD":"95.592","NORAD_CAT_ID":"44752","ECCENTRICITY":"0.00019710","TLE_LINE1":"1 44752U 19074AR  22061.92889926 -.00000007  00000-0  18426-4 0  9990","PERIAPSIS":"545.845","OBJECT_TYPE":"PAYLOAD","MEAN_ELEMENT_THEORY":"SGP4","RA_OF_ASC_NODE":"315.6494","ELEMENT_SET_NO":"999","CLASSIFICATION_TYPE":"U","GP_ID":"197657805","TIME_SYSTEM":"UTC","ARG_OF_PERICENTER":"56.6875","SITE":"AFETR","BSTAR":"0.00001842600000","SEMIMAJOR_AXIS":"6925.345","MEAN_MOTION":"15.06401298","RCS_SIZE":"LARGE","MEAN_ANOMALY":"303.4303","REV_AT_EPOCH":"12724","MEAN_MOTION_DOT":"-0.00000007","CENTER_NAME":"EARTH","INCLINATION":"53.0569","EPOCH":"2022-03-02T22:17:36.896064","DECAY_DATE":null,"COUNTRY_CODE":"US","OBJECT_NAME":"STARLINK-1047","REF_FRAME":"TEME","LAUNCH_DATE":"2019-11-11","APOAPSIS":"548.575","TLE_LINE2":"2 44752  53.0569 315.6494 0001971  56.6875 303.4303 15.06401298127247","OBJECT_ID":"2019-074AR"},{"MEAN_MOTION_DDOT":"0.0000000000000","PERIOD":"95.593","NORAD_CAT_ID":"44753","EPHEMERIS_TYPE":"0","FILE":"3341695","OBJECT_TYPE":"PAYLOAD","TLE_LINE1":"1 44753U 19074AS  22061.93443505 -.00001980  00000-0 -11410-3 0  9998","PERIAPSIS":"546.082","ECCENTRICITY":"0.00016730","GP_ID":"197658056","CLASSIFICATION_TYPE":"U","ELEMENT_SET_NO":"999","RA_OF_ASC_NODE":"295.6224","MEAN_ELEMENT_THEORY":"SGP4","SITE":"AFETR","ARG_OF_PERICENTER":"71.5330","TIME_SYSTEM":"UTC","REV_AT_EPOCH":"12752","MEAN_MOTION_DOT":"-0.00001980","RCS_SIZE":"LARGE","MEAN_ANOMALY":"288.5841","BSTAR":"-0.00011410000000","SEMIMAJOR_AXIS":"6925.376","MEAN_MOTION":"15.06391145","COUNTRY_CODE":"US","DECAY_DATE":null,"INCLINATION":"53.0524","EPOCH":"2022-03-02T22:25:35.188320","CENTER_NAME":"EARTH","TLE_LINE2":"2 44753  53.0524 295.6224 0001673  71.5330 288.5841 15.06391145127528","APOAPSIS":"548.399","OBJECT_NAME":"STARLINK-1048","LAUNCH_DATE":"2019-11-11","REF_FRAME":"TEME","OBJECT_ID":"2019-074AS"}];
